NORAD_CAT_ID,OBJECT_NAME,OBJECT_TYPE,EPOCH,MEAN_MOTION,ECCENTRICITY,INCLINATION,RA_OF_ASC_NODE,ARG_OF_PERICENTER,MEAN_ANOMALY,BSTAR,MEAN_MOTION_DOT,MEAN_MOTION_DDOT,TLE_LINE0,TLE_LINE1,TLE_LINE2,SEMIMAJOR_AXIS,PERIOD,APOGEE,PERIGEE,DECAYED
51862.0,STARLINK-3508,PAYLOAD,2023-07-07 16:15:23,15.08835943,0.0001163,53.2172,70.609,89.7487,270.3639,0.00017706,2.531e-05,0.0,0 STARLINK-3508,1 51862U 22022L   23188.67735719  .00002531  00000-0  17706-3 0  9992,2 51862  53.2172  70.6090 0001163  89.7487 270.3639 15.08835943 75828,6917.893,95.438,540.562,538.953,0.0
51862.0,STARLINK-3508,PAYLOAD,2023-07-07 22:36:55,15.08848317,0.000113,53.2175,69.4202,88.0354,272.0767,0.00017931,2.568e-05,0.0,0 STARLINK-3508,1 51862U 22022L   23188.94230940  .00002568  00000-0  17931-3 0  9998,2 51862  53.2175  69.4202 0001130  88.0354 272.0767 15.08848317 75865,6917.855,95.437,540.502,538.938,0.0
51862.0,STARLINK-3508,PAYLOAD,2023-07-08 19:16:56,15.08846321,0.0001084,53.2163,65.5524,96.1506,263.961,-6.0454e-05,-1.25e-05,0.0,0 STARLINK-3508,1 51862U 22022L   23189.80343597 -.00001250  00000-0 -60454-4 0  9995,2 51862  53.2163  65.5524 0001084  96.1506 263.9610 15.08846321 75996,6917.861,95.437,540.476,538.976,0.0
51862.0,STARLINK-3508,PAYLOAD,2023-07-09 22:18:30,15.08845103,0.0001046,53.2178,60.4992,100.4939,259.6171,-8.7383e-05,-1.678e-05,0.0,0 STARLINK-3508,1 51862U 22022L   23190.92951404 -.00001678  00000-0 -87383-4 0  9996,2 51862  53.2178  60.4992 0001046 100.4939 259.6171 15.08845103 76163,6917.865,95.437,540.453,539.006,0.0
51862.0,STARLINK-3508,PAYLOAD,2023-07-10 22:09:17,15.08837029,8.9e-05,53.2178,56.0387,102.7094,257.3997,-2.3889e-05,-6.68e-06,0.0,0 STARLINK-3508,1 51862U 22022L   23191.92311660 -.00000668  00000-0 -23889-4 0  9990,2 51862  53.2178  56.0387 0000890 102.7094 257.3997 15.08837029 76311,6917.889,95.438,540.37,539.139,0.0
51862.0,STARLINK-3508,PAYLOAD,2023-07-11 23:35:27,15.08840968,8.7e-05,53.2179,51.2812,106.1797,253.9291,3.473e-05,2.65e-06,0.0,0 STARLINK-3508,1 51862U 22022L   23192.98295343  .00000265  00000-0  34730-4 0  9994,2 51862  53.2179  51.2812 0000870 106.1797 253.9291 15.08840968 76470,6917.877,95.437,540.344,539.141,0.0
51862.0,STARLINK-3508,PAYLOAD,2023-07-13 07:23:10,15.08835054,0.0001099,53.218,45.3339,87.1012,273.0106,-1.0747e-05,-4.59e-06,0.0,0 STARLINK-3508,1 51862U 22022L   23194.30776134 -.00000459  00000-0 -10747-4 0  9993,2 51862  53.2180  45.3339 0001099  87.1012 273.0106 15.08835054 76672,6917.896,95.438,540.521,539.0,0.0
51862.0,STARLINK-3508,PAYLOAD,2023-07-13 21:41:35,15.08882386,0.0001014,53.2176,42.6552,87.6571,272.4537,0.00034338,5.188e-05,0.0,0 STARLINK-3508,1 51862U 22022L   23194.90387914  .00005188  00000-0  34338-3 0  9996,2 51862  53.2176  42.6552 0001014  87.6571 272.4537 15.08882386 76767,6917.751,95.435,540.317,538.914,0.0
51862.0,STARLINK-3508,PAYLOAD,2023-07-14 13:35:28,15.08850958,0.0001158,53.2181,39.6821,86.2778,273.8347,9.1017e-05,1.161e-05,0.0,0 STARLINK-3508,1 51862U 22022L   23195.56629962  .00001161  00000-0  91017-4 0  9996,2 51862  53.2181  39.6821 0001158  86.2778 273.8347 15.08850958 76866,6917.847,95.437,540.513,538.911,0.0
51862.0,STARLINK-3508,PAYLOAD,2023-07-15 07:04:43,15.08841568,0.0001579,53.2184,36.4117,89.6906,270.4267,1.3394e-06,-2.67e-06,0.0,0 STARLINK-3508,1 51862U 22022L   23196.29494446 -.00000267  00000-0  13394-5 0  9994,2 51862  53.2184  36.4117 0001579  89.6906 270.4267 15.08841568 76972,6917.876,95.437,540.833,538.648,0.0
51862.0,STARLINK-3508,PAYLOAD,2023-07-15 16:37:03,15.08824613,0.0001555,53.2174,34.6285,93.7563,266.3607,-0.00017178,-3.02e-05,0.0,0 STARLINK-3508,1 51862U 22022L   23196.69240232 -.00003020  00000-0 -17178-3 0  9993,2 51862  53.2174  34.6285 0001555  93.7563 266.3607 15.08824613 77038,6917.927,95.439,540.868,538.717,0.0
51862.0,STARLINK-3508,PAYLOAD,2023-07-15 22:58:35,15.0885061,0.0001582,53.2183,33.4383,98.3048,261.8123,-0.00040851,-6.786e-05,0.0,0 STARLINK-3508,1 51862U 22022L   23196.95735498 -.00006786  00000-0 -40851-3 0  9991,2 51862  53.2183  33.4383 0001582  98.3048 261.8123 15.08850610 77076,6917.848,95.437,540.807,538.619,0.0
51862.0,STARLINK-3508,PAYLOAD,2023-07-16 19:38:36,15.08834869,0.0001737,53.2182,29.574,95.9007,264.2183,-0.00018306,-3.2e-05,0.0,0 STARLINK-3508,1 51862U 22022L   23197.81848137 -.00003200  00000-0 -18306-3 0  9990,2 51862  53.2182  29.5740 0001737  95.9007 264.2183 15.08834869 77204,6917.896,95.438,540.963,538.559,0.0
51862.0,STARLINK-3508,PAYLOAD,2023-07-17 19:29:23,15.08833403,0.0001742,53.2181,25.1132,102.6128,257.5059,0.00020401,2.96e-05,0.0,0 STARLINK-3508,1 51862U 22022L   23198.81207352  .00002960  00000-0  20401-3 0  9998,2 51862  53.2181  25.1132 0001742 102.6128 257.5059 15.08833403 77352,6917.901,95.438,540.971,538.56,0.0
51862.0,STARLINK-3508,PAYLOAD,2023-07-18 11:23:15,15.08830512,0.0001933,53.2193,22.1438,110.6688,249.4512,9.5306e-05,1.229e-05,0.0,0 STARLINK-3508,1 51862U 22022L   23199.47448297  .00001229  00000-0  95306-4 0  9990,2 51862  53.2193  22.1438 0001933 110.6688 249.4512 15.08830512 77456,6917.909,95.438,541.112,538.437,0.0
51862.0,STARLINK-3508,PAYLOAD,2023-07-19 11:14:03,15.08831924,0.0001655,53.2184,17.6775,102.3209,257.7969,-0.00011266,-2.08e-05,0.0,0 STARLINK-3508,1 51862U 22022L   23200.46809677 -.00002080  00000-0 -11266-3 0  9995,2 51862  53.2184  17.6775 0001655 102.3209 257.7969 15.08831924 77600,6917.905,95.438,540.915,538.625,0.0
51862.0,STARLINK-3508,PAYLOAD,2023-07-19 19:10:58,15.0883623,0.0001639,53.2187,16.1908,100.8589,259.2587,-7.1489e-05,-1.425e-05,0.0,0 STARLINK-3508,1 51862U 22022L   23200.79929391 -.00001425  00000-0 -71489-4 0  9993,2 51862  53.2187  16.1908 0001639 100.8589 259.2587 15.08836230 77654,6917.892,95.438,540.891,538.623,0.0
51862.0,STARLINK-3508,PAYLOAD,2023-07-21 10:55:37,15.08835176,0.0001521,53.2188,8.7552,92.5754,267.5413,-1.0848e-05,-4.61e-06,0.0,0 STARLINK-3508,1 51862U 22022L   23202.45529418 -.00000461  00000-0 -10848-4 0  9995,2 51862  53.2188   8.7552 0001521  92.5754 267.5413 15.08835176 77904,6917.895,95.438,540.812,538.708,0.0
51862.0,STARLINK-3508,PAYLOAD,2023-07-24 10:27:58,15.08843453,0.0001558,53.2188,355.3715,126.4103,233.7033,-7.3177e-05,-1.453e-05,0.0,0 STARLINK-3508,1 51862U 22022L   23205.43608797 -.00001453  00000-0 -73177-4 0  9990,2 51862  53.2188 355.3715 0001558 126.4103 233.7033 15.08843453 78351,6917.87,95.437,540.813,538.657,0.0
51862.0,STARLINK-3508,PAYLOAD,2023-07-25 10:18:45,15.08836549,0.0001433,53.2186,350.9151,101.0833,259.0321,-1.9691e-05,-6.01e-06,0.0,0 STARLINK-3508,1 51862U 22022L   23206.42969172 -.00000601  00000-0 -19691-4 0  9992,2 51862  53.2186 350.9151 0001433 101.0833 259.0321 15.08836549 78501,6917.891,95.438,540.747,538.765,0.0
51862.0,STARLINK-3508,PAYLOAD,2023-07-26 10:09:32,15.08845408,9.71e-05,53.2184,346.4547,88.1731,271.9372,-0.00011046,-2.046e-05,0.0,0 STARLINK-3508,1 51862U 22022L   23207.42329317 -.00002046  00000-0 -11046-3 0  9994,2 51862  53.2184 346.4547 0000971  88.1731 271.9372 15.08845408 78655,6917.864,95.437,540.401,539.057,0.0
51862.0,STARLINK-3508,PAYLOAD,2023-07-27 10:00:19,15.08829513,0.0001427,53.2211,341.9958,94.3256,265.7899,6.6935e-06,-1.81e-06,0.0,0 STARLINK-3508,1 51862U 22022L   23208.41689775 -.00000181  00000-0  66935-5 0  9997,2 51862  53.2211 341.9958 0001427  94.3256 265.7899 15.08829513 78801,6917.912,95.438,540.765,538.79,0.0
51862.0,STARLINK-3508,PAYLOAD,2023-07-28 14:37:16,15.08840579,0.0001353,53.2177,336.6414,106.0063,254.1078,-7.5636e-05,-1.491e-05,0.0,0 STARLINK-3508,1 51862U 22022L   23209.60921614 -.00001491  00000-0 -75636-4 0  9993,2 51862  53.2177 336.6414 0001353 106.0063 254.1078 15.08840579 78980,6917.879,95.438,540.68,538.808,0.0
51862.0,STARLINK-3508,PAYLOAD,2023-07-28 17:48:02,15.08839592,0.000133,53.2178,336.0469,107.3596,252.7541,-7.6455e-05,-1.504e-05,0.0,0 STARLINK-3508,1 51862U 22022L   23209.74169678 -.00001504  00000-0 -76455-4 0  9997,2 51862  53.2178 336.0469 0001330 107.3596 252.7541 15.08839592 79001,6917.882,95.438,540.667,538.827,0.0
51862.0,STARLINK-3508,PAYLOAD,2023-07-30 11:08:04,15.08838803,9.06e-05,53.2207,328.3178,84.2866,275.823,-2.4889e-05,-6.84e-06,0.0,0 STARLINK-3508,1 51862U 22022L   23211.46393719 -.00000684  00000-0 -24889-4 0  9996,2 51862  53.2207 328.3178 0000906  84.2866 275.8230 15.08838803 79269,6917.884,95.438,540.376,539.122,0.0
51862.0,STARLINK-3508,PAYLOAD,2023-07-31 17:20:23,15.08842657,9.52e-05,53.2178,322.6657,75.2303,284.8795,2.6685e-05,1.37e-06,0.0,0 STARLINK-3508,1 51862U 22022L   23212.72249345  .00000137  00000-0  26685-4 0  9998,2 51862  53.2178 322.6657 0000952  75.2303 284.8795 15.08842657 79451,6917.872,95.437,540.396,539.079,0.0
51862.0,STARLINK-3508,PAYLOAD,2023-08-02 05:54:16,15.0880666,9.27e-05,53.2176,315.8268,82.8775,277.2323,0.00034125,5.143e-05,0.0,0 STARLINK-3508,1 51862U 22022L   23214.24602918  .00005143  00000-0  34125-3 0  9995,2 51862  53.2176 315.8268 0000927  82.8775 277.2323 15.08806660 79682,6917.982,95.44,540.489,539.206,0.0
51862.0,STARLINK-3508,PAYLOAD,2023-08-02 13:51:11,15.08842899,9.71e-05,53.2182,314.3414,78.1692,281.9409,-1.4921e-05,-5.25e-06,0.0,0 STARLINK-3508,1 51862U 22022L   23214.57721615 -.00000525  00000-0 -14921-4 0  9991,2 51862  53.2182 314.3414 0000971  78.1692 281.9409 15.08842899 79738,6917.872,95.437,540.408,539.065,0.0
51862.0,STARLINK-3508,PAYLOAD,2023-08-03 13:41:57,15.08848291,9.38e-05,53.2177,309.8808,88.0375,272.0725,2.9992e-05,1.9e-06,0.0,0 STARLINK-3508,1 51862U 22022L   23215.57080978  .00000190  00000-0  29992-4 0  9992,2 51862  53.2177 309.8808 0000938  88.0375 272.0725 15.08848291 79889,6917.855,95.437,540.369,539.071,0.0
51862.0,STARLINK-3508,PAYLOAD,2023-08-04 10:22:00,15.08832406,9.3e-05,53.2179,306.0146,82.2245,277.8852,-6.3123e-05,-1.292e-05,0.0,0 STARLINK-3508,1 51862U 22022L   23216.43194546 -.00001292  00000-0 -63123-4 0  9995,2 51862  53.2179 306.0146 0000930  82.2245 277.8852 15.08832406 80011,6917.904,95.438,540.412,539.125,0.0
